#aV2016  6 15  0  0  0.00000000     288 DD+AD WGS84 FIT  NGA
## 1901 259200.00000000   300.00000000 57554 0.0000000000000
+   31     1  2  3  5  6  7  8  9 10 11 12 13 14 15 16 17 18
+         19 20 21 22 23 24 25 26 27 28 29 30 31 32  0  0  0
+          0  0  0  0  0  0  0  0  0  0  0  0  0  0  0  0  0
+          0  0  0  0  0  0  0  0  0  0  0  0  0  0  0  0  0
+          0  0  0  0  0  0  0  0  0  0  0  0  0  0  0  0  0
++         2  2  2  2  2  2  2  2  2  2  2  2  2  2  2  2  2
++         2  2  2  2  2  2  2  2  2  2  2  2  2  2  0  0  0
++         0  0  0  0  0  0  0  0  0  0  0  0  0  0  0  0  0
++         0  0  0  0  0  0  0  0  0  0  0  0  0  0  0  0  0
++         0  0  0  0  0  0  0  0  0  0  0  0  0  0  0  0  0
%c cc cc ccc ccc cccc cccc cccc cccc ccccc ccccc ccccc ccccc
%c cc cc ccc ccc cccc cccc cccc cccc ccccc ccccc ccccc ccccc
%f  0.0000000  0.000000000  0.00000000000  0.000000000000000
%f  0.0000000  0.000000000  0.00000000000  0.000000000000000
%i    0    0    0    0      0      0      0      0         0
%i    0    0    0    0      0      0      0      0         0
/*      NGA, ST. LOUIS,MO.                                  
/*   EPHEMERIS COMPUTED FROM 2 DAYS OF DATA                 
/*   EPOCHA v2.4 SMOOTHER                                   
/*   G1762  SATAF SATAPC                                    
*  2016  6 15 15 30  0.00000000
P  1   1856.119891 -16300.766816 -20919.526325     23.730051                    
V  1  24922.396215  -8808.359365   9344.177312      0.012373                    
P  2 -20214.674031  15216.942528   7825.421887    585.230972                    
V  2 -10033.241794    772.373892 -29458.048917     -0.025896                    
P  3  -9086.698127 -20234.574668 -14601.821314    -67.516455                    
V  3  15890.545651   9824.787455 -23491.422618     -0.033957                    
P  5  -9698.121881  12102.382440  21498.220836   -112.647443                    
V  5 -21826.889641 -16739.834010   -222.118109      0.029214                    
P  6 -25209.727001   5257.616881  -6501.062221    205.158357                    
V  6   6710.978894  -5475.167247 -30386.927420      0.053670                    
P  7 -15343.333123  -9018.883942  19981.825797    448.277724                    
V  7  23063.751962  -9495.662033  13115.226606     -0.024007                    
P  8   5913.727945 -25657.891451   3371.130034    -39.129624                    
V  8   2121.765710   4557.925533  31462.367843     -0.014335                    
P  9  -8598.949536 -19511.618900  15811.023039    149.151132                    
V  9   4798.518872 -19652.850352 -21642.108216      0.072819                    
P 10  22850.377227   8348.600142 -10719.302503    -45.995574                    
V 10   9209.416758  10334.576277  27558.040155     -0.081884                    
P 11   4657.064010 -21381.840291 -15591.846547   -651.268865                    
V 11  16026.451278 -10756.893389  20304.735747     -0.027094                    
P 12   5630.632833  19816.224150 -17021.610508    382.810221                    
V 12 -16621.546795 -13208.316647 -20836.518779      0.010475                    
P 13 -12471.875036  21355.147382   9679.698186    -24.899955                    
V 13   1056.429087 -12575.551823  28650.249727     -0.025324                    
P 14  15660.582888  -3729.763490 -20839.173601    -19.501272                    
V 14  -5105.312650  26609.432435  -8649.926181     -0.020326                    
P 15  -2808.309992  26201.514678    804.648847   -315.394403                    
V 15  -3959.710111  -1521.647259  31279.108648     -0.016160                    
P 16  10720.894518  -9846.174794  22121.202431    -10.690830                    
V 16  20920.333844  18984.626962  -1307.501768      0.024324                    
P 17 -14411.253223  -2955.995014 -21785.547733   -204.019921                    
V 17   5309.528607 -27910.691788     92.140955     -0.000021                    
P 18  20843.522854  16660.517909   1397.606728    526.745398                    
V 18  -3115.495975   2319.347825  30707.570389      0.040057                    
P 19 -15953.601893   8141.603008 -19976.517510   -525.462221                    
V 19   5070.381116 -24165.382119 -13715.991480      0.001504                    
P 20   6324.837860  19369.910679  16867.603656    418.596726                    
V 20 -19563.523262  -9991.718342  18686.991767      0.022872                    
P 21  18097.937712   7307.156164  18868.909801   -525.887319                    
V 21 -20006.895524  10248.563506  15626.607622     -0.010807                    
P 22   -241.803916 -18159.082256 -19103.843321    319.339832                    
V 22  21146.538432  13365.259448 -12932.061462     -0.086836                    
P 23  -2466.495889 -24938.172039   8284.946111   -178.236598                    
V 23   4793.722827  -9824.274093 -29267.972751     -0.015915                    
P 24  -5460.296028  17373.564172 -19324.284335    -18.625007                    
V 24 -23141.221785   8234.651837  14176.657524     -0.006377                    
P 25  16409.934742  19601.659408  -7695.195168   -190.735066                    
V 25  -8677.916443  -4391.704422 -30006.963183     -0.070236                    
P 26  18619.378229  -2215.973510  18824.511903   -396.516228                    
V 26  18016.044264  15767.672940 -15909.889958     -0.111844                    
P 27  11957.841370 -19472.419126  13354.965806    103.846370                    
V 27   -318.830855  17187.618198  25444.486537      0.042157                    
P 28 -21701.220127 -11926.065943  -9032.395302    530.350501                    
V 28  -7801.803798  -9720.131217  29503.153960      0.027026                    
P 29   5051.972016  22105.888683  13868.099983    656.651392                    
V 29  -5193.417231  16856.924965 -24944.646173     -0.003531                    
P 30 -22509.788359  -3084.866026  13833.255155    133.240321                    
V 30  15999.948488  -7593.199179  24224.175370      0.027215                    
P 31  25626.160428  -7019.517770  -3074.763704    263.780573                    
V 31  -3010.270462   3393.191756 -31430.859418     -0.019345                    
P 32  15275.552474    555.573796 -21708.105726    -25.308445                    
V 32  -3637.262877  27356.874928  -1873.249173     -0.081407                    
EOF
